IRIDIUM 57              
1 25273U 98019B   24231.75174473  .00000912  00000+0  31165-3 0  9996
2 25273  86.3919 271.9104 0002262  90.8169 269.3286 14.35340265381399
IRIDIUM 63              
1 25286U 98021B   24231.89076854  .00001453  00000+0  49487-3 0  9999
2 25286  86.4002 208.7629 0002387  93.3365 266.8105 14.35905700380450
IRIDIUM 69              
1 25319U 98026A   24231.91340666  .00001408  00000+0  43978-3 0  9998
2 25319  86.3970 222.9434 0001225  17.2944 342.8297 14.40160601379544
IRIDIUM 71              
1 25320U 98026B   24231.90006093  .00001589  00000+0  49405-3 0  9993
2 25320  86.3977 217.6992 0003309  49.2491 310.8995 14.40468596380063
IRIDIUM 73              
1 25344U 98032C   24231.93432594  .00002468  00000+0  62266-3 0  9995
2 25344  86.4484 175.0550 0002003  79.3917 280.7513 14.50754557386723
IRIDIUM 82              
1 25467U 98051A   24231.63829906  .00028218  00000+0  13332-2 0  9996
2 25467  86.3696 256.0796 0120264 351.8783   8.0504 15.12989035377927
